TERRA                   
1 25994U 99068A   21138.22193382  .00000066  00000-0  24683-4 0  9995
2 25994  98.1764 213.1972 0001473  97.1816 337.6541 14.57131376139064
SL-16 R/B               
1 26070U 00006B   21136.58352093 -.00000311  00000-0 -13461-3 0  9994
2 26070  71.0023 193.2166 0017689 330.1384  29.8728 14.15474841 99778
MTI                     
1 26102U 00014A   21137.72233041  .00009264  00000-0  11364-3 0  9991
2 26102  97.4683  42.6811 0008285  73.9694 286.2475 15.60526915176551
TITAN 4B R/B            
1 26474U 00047B   21138.47186225  .00000178  00000-0  26256-4 0  9995
2 26474  67.9943 233.4072 0057156 194.0614 165.8941 14.96146145129437
ENVISAT                 
1 27386U 02009A   21138.46855584  .00000017  00000-0  19201-4 0  9992
2 27386  98.1482 134.0581 0001270  85.9100  28.6935 14.38025805  6763
IDEFIX & ARIANE 42P R/B 
1 27422U 02021B   21137.86658172  .00000022  00000-0  25089-4 0  9991
2 27422  98.4003  91.9524 0011626 328.9221  31.1273 14.29318729992931
AQUA                    
1 27424U 02022A   21138.10245667  .00000114  00000-0  35333-4 0  9998
2 27424  98.2081  79.8641 0002181  57.5996   2.1655 14.57113506 12653
CZ-4B R/B               
1 27432U 02024C   21138.08399135 -.00000024  00000-0  11736-4 0  9998
2 27432  99.0864 151.9802 0049659 313.2664 114.6821 14.14108319981025
MIDORI II (ADEOS-II)    
1 27597U 02056A   21137.81455018  .00000055  00000-0  39987-4 0  9999
2 27597  98.5625  83.7434 0002160  87.0674 273.0754 14.27499009959519
H-2A R/B                
1 27601U 02056E   21138.08211991 -.00000018  00000-0  83464-5 0  9995
2 27601  98.1915 161.9972 0072069   1.5582  61.5817 14.31992093962579
CZ-4B R/B               
1 28059U 03049C   21138.22367260  .00000052  00000-0  24277-4 0  9996
2 28059  98.4944  64.6255 0049700 193.9631 166.0193 14.52650507931413
CZ-2C R/B               
1 28222U 04012C   21137.89804963  .00000581  00000-0  38262-4 0  9993
2 28222  97.7252 108.4007 0045831 327.6934  85.4569 15.10860210936486
SL-16 R/B               
1 28353U 04021B   21137.90403405  .00000034  00000-0  42996-4 0  9998
2 28353  70.9979 317.8822 0005904 206.6729 153.4090 14.14238944874433
CZ-4B R/B               
1 28415U 04035C   21138.15833108 -.00000074  00000-0 -41410-6 0  9995
2 28415  97.5675 181.1986 0049764 291.3965  68.1957 15.07106797914047
CZ-2C R/B               
1 28480U 04046B   21137.96163132 -.00000011  00000-0  11286-4 0  9996
2 28480  98.0512 152.4227 0140923 314.5810 101.3094 14.25752055858086
ARIANE 5 R/B            
1 28499U 04049H   21138.28935639  .00000069  00000-0  16114-4 0  9991
2 28499  98.0668 247.3805 0090652 271.1945 141.9933 14.80118278885664
CZ-2D R/B               
1 28738U 05024B   21137.94274389  .00000464  00000-0  30287-4 0  9997
2 28738  97.3623 155.0563 0013500 105.5024 254.7699 15.12387837871958
SUZAKU (ASTRO-EII)      
1 28773U 05025A   21138.06463000  .00001357  00000-0  60196-4 0  9995
2 28773  31.3825 359.7651 0004585 334.9469  25.0956 15.18351870874822
ALOS (DAICHI)           
1 28931U 06002A   21138.46086448  .00000125  00000-0  33076-4 0  9997
2 28931  97.8846 114.5187 0002128  84.4814 275.6625 14.62836420816673
H-2A R/B                
1 28932U 06002B   21138.08309309  .00000185  00000-0  23356-4 0  9996
2 28932  98.3287 153.2964 0087123 307.4604  88.1739 14.92547684831163
AKARI (ASTRO-F)         
1 28939U 06005A   21138.03930702  .00002407  00000-0  61842-4 0  9999
2 28939  98.2451 157.6982 0086434 231.1932 128.1569 15.36832879832250
RESURS-DK 1             
1 29228U 06021A   21138.06142586  .00000115  00000-0  15992-4 0  9996
2 29228  69.9369  56.0919 0007312 292.9265  67.1124 15.02689684823008
GENESIS 1               
1 29252U 06029A   21138.46184821  .00000441  00000-0  30945-4 0  9990
2 29252  64.5222 285.4802 0039996 324.1865  35.6577 15.18647733819047
CZ-4B R/B               
1 29507U 06046C   21137.95596019  .00001144  00000-0  92656-4 0  9999
2 29507  97.7346 164.0078 0048452 117.6552 242.9602 15.00849668795538
CZ-2C R/B               
1 31114U 07010B   21138.08824405  .00000048  00000-0  40789-4 0  9998
2 31114  98.2345 333.9352 0059970  12.5757 347.6901 14.19360919730483
COSMO-SKYMED 1          
1 31598U 07023A   21138.46506111 -.00000027  00000-0  31176-5 0  9990
2 31598  97.8894 322.7828 0001567  90.2486 269.8959 14.82157125754452
GENESIS 2               
1 31789U 07028A   21137.94796996  .00000344  00000-0  26975-4 0  9992
2 31789  64.5038 329.5048 0010534 198.2819 161.7927 15.17760025765913
COSMOS 2428             
1 31792U 07029A   21138.44564540  .00000256  00000-0  16542-3 0  9991
2 31792  70.8961 289.0339 0010419 272.9807  87.0121 14.12265710716168
SL-16 R/B               
1 31793U 07029B   21137.79215153 -.00000305  00000-0 -13416-3 0  9996
2 31793  70.9759 264.0294 0002090 261.1640 206.5472 14.14443626716915
KORONAS-FOTON           
1 33504U 09003A   21137.79593342  .00000796  00000-0  39666-4 0  9999
2 33504  82.4428 250.0559 0018484 197.5394 162.5202 15.15974580678019
H-2A R/B                
1 38341U 12025E   21138.05597316  .00000116  00000-0  21191-4 0  9996
2 38341  98.5277 321.4646 0054318 236.4488 123.1531 14.84218339487076
CUSAT 2 & FALCON 9 R/B  
1 39271U 13055G   21137.85320818  .00004808  00000-0  11369-3 0  9998
2 39271  80.9651 266.2003 0570740 241.5304 112.7280 14.52162652399190
SL-4 R/B                
1 39679U 14021B   21138.01721741  .00000452  00000-0  39668-4 0  9997
2 39679  51.6169 354.2710 0170573  25.7185 335.2146 15.06951716389787
ALOS-2                  
1 39766U 14029A   21138.49664075  .00000234  00000-0  38221-4 0  9992
2 39766  97.9199 236.2853 0001636  87.1556 272.9847 14.79474856377230
CZ-2C R/B               
1 40306U 14071B   21138.19786044  .00005504  00000-0  10630-3 0  9997
2 40306  97.3689  95.1765 0015097  31.9581 328.2581 15.48111858365600
SL-27 R/B               
1 40354U 14084B   21137.90431957  .00001323  00000-0  32602-4 0  9991
2 40354  74.7388  55.7917 0035185  75.7767 284.7349 15.41049855359635
YAOGAN 29               
1 41038U 15069A   21138.46744540  .00000016  00000-0  89997-5 0  9990
2 41038  98.0371 132.4331 0000737  95.4417 264.6891 14.80502865295843
ASTRO-H (HITOMI)        
1 41337U 16012A   21138.06459781  .00000326  00000-0  19439-4 0  9994
2 41337  31.0061  47.9615 0012263 138.7807 221.3756 14.98835296287740
HXMT (HUIYAN)           
1 42758U 17034A   21138.46147009  .00000599  00000-0  50658-4 0  9998
2 42758  43.0192 357.7486 0010242 327.0772  99.3278 15.09175937216480
CZ-2C R/B               
1 43521U 18054D   21138.42703279  .00001003  00000-0  55528-4 0  9995
2 43521  35.1538 274.9254 0081940 193.8089 166.0380 15.11487237159856
AEOLUS                  
1 43600U 18066A   21138.09636486  .00034943  00000-0  13642-3 0  9993
2 43600  96.7162 145.4062 0005211  91.6700 268.5170 15.86965011158432
SAOCOM 1A               
1 43641U 18076A   21138.47355904  .00000029  00000-0  10252-4 0  9997
2 43641  97.8898 325.8341 0001600  82.9202 277.2208 14.82153468141225
CREW DRAGON DEMO-1 DEB  
1 44064U 19011B   21138.10555665  .00091694  00000-0  29900-3 0  9990
2 44064  51.6228  36.5086 0002822 180.4446 179.6557 15.89910895125589
SAOCOM 1B               
1 46265U 20059A   21138.77472554  .00000123  00000-0  21956-4 0  9998
2 46265  97.8878 325.1896 0001657  86.9761 273.1645 14.82158367 38668
CZ-2F R/B               
1 46390U 20063B   21138.25752702  .00135374  19181-4  22291-3 0  9994
2 46390  50.1964 126.2257 0007933  12.4505 347.6680 16.02752952 40639
2020-063G               
1 46395U 20063G   21137.92197758  .00020435  00000-0  82875-4 0  9998
2 46395  50.2019 138.9544 0008955 338.8595  21.2018 15.86163620 40431
SL-4 R/B                
1 47547U 21008B   21138.38107292  .00095272  65487-5  39414-3 0  9999
2 47547  67.1403 125.2561 0409281 354.6303   5.0512 15.18250498 15776
TIANHE                  
1 48274U 21035A   21138.39163442  .00007615  00000-0  77211-4 0  9994
2 48274  41.4718 105.6011 0018575 315.2847 180.4095 15.65327520  3020
